CTC1_L_00130016-03
1 41398U 24322GS  26037.47802083  .00000000  00000+0  00000-0 0  9997
2 41398 100.0000 180.0000 0000000   0.0000   0.0000 14.24551582    15
CTC1_L_00130016-04
1 41399U 25793BX  26037.47802083  .00000000  00000+0  00000-0 0  9991
2 41399 100.0000 180.0000 0000000   0.0000  90.0000 14.24551582    15
CTC1_L_00130017-01
1 41400U 26566XP  26037.47802083  .00000000  00000+0  00000-0 0  9993
2 41400 100.0000 192.0000 0000000   0.0000 192.0000 14.24551582    14
CTC1_L_00130017-02
1 41401U 24130ZO  26037.47802083  .00000000  00000+0  00000-0 0  9999
2 41401 100.0000 192.0000 0000000   0.0000 282.0000 14.24551582    15
CTC1_L_00130017-03
1 41402U 25370DZ  26037.47802083  .00000000  00000+0  00000-0 0  9997
2 41402 100.0000 192.0000 0000000   0.0000  12.0000 14.24551582    17
CTC1_L_00130017-04
1 41403U 25494JQ  26037.47802083  .00000000  00000+0  00000-0 0  9995
2 41403 100.0000 192.0000 0000000   0.0000 102.0000 14.24551582    18
CTC1_L_00130018-01
1 41404U 26924YF  26037.47802083  .00000000  00000+0  00000-0 0  9995
2 41404 100.0000 204.0000 0000000   0.0000 204.0000 14.24551582    16
CTC1_L_00130018-02
1 41405U 24333GK  26037.47802083  .00000000  00000+0  00000-0 0  9998
2 41405 100.0000 204.0000 0000000   0.0000 294.0000 14.24551582    16
CTC1_L_00130018-03
1 41406U 26748KB  26037.47802083  .00000000  00000+0  00000-0 0  9991
2 41406 100.0000 204.0000 0000000   0.0000  24.0000 14.24551582    18
CTC1_L_00130018-04
1 41407U 22278LI  26037.47802083  .00000000  00000+0  00000-0 0  9996
2 41407 100.0000 204.0000 0000000   0.0000 114.0000 14.24551582    19
CTC1_L_00130019-01
1 41408U 22085LY  26037.47802083  .00000000  00000+0  00000-0 0  9993
2 41408 100.0000 216.0000 0000000   0.0000 216.0000 14.24551582    16
CTC1_L_00130019-02
1 41409U 26093GX  26037.47802083  .00000000  00000+0  00000-0 0  9997
2 41409 100.0000 216.0000 0000000   0.0000 306.0000 14.24551582    17
CTC1_L_00130019-03
1 41410U 24182WE  26037.47802083  .00000000  00000+0  00000-0 0  9996
2 41410 100.0000 216.0000 0000000   0.0000  36.0000 14.24551582    19
CTC1_L_00130019-04
1 41411U 26012MV  26037.47802083  .00000000  00000+0  00000-0 0  9991
2 41411 100.0000 216.0000 0000000   0.0000 126.0000 14.24551582    10
CTC1_L_00130020-01
1 41412U 23169VC  26037.47802083  .00000000  00000+0  00000-0 0  9992
2 41412 100.0000 228.0000 0000000   0.0000 228.0000 14.24551582    17
CTC1_L_00130020-02
1 41413U 25206EB  26037.47802083  .00000000  00000+0  00000-0 0  9997
2 41413 100.0000 228.0000 0000000   0.0000 318.0000 14.24551582    18
CTC1_L_00130020-03
1 41414U 26267UG  26037.47802083  .00000000  00000+0  00000-0 0  9996
2 41414 100.0000 228.0000 0000000   0.0000  48.0000 14.24551582    19
CTC1_L_00130020-04
1 41415U 23478DW  26037.47802083  .00000000  00000+0  00000-0 0  9998
2 41415 100.0000 228.0000 0000000   0.0000 138.0000 14.24551582    10
CTC1_L_00130021-01
1 41416U 25793OK  26037.47802083  .00000000  00000+0  00000-0 0  9991
2 41416 100.0000 240.0000 0000000   0.0000 240.0000 14.24551582    19
CTC1_L_00130021-02
1 41417U 25144TP  26037.47802083  .00000000  00000+0  00000-0 0  9992
2 41417 100.0000 240.0000 0000000   0.0000 330.0000 14.24551582    10
CTC1_L_00130021-03
1 41418U 23775NR  26037.47802083  .00000000  00000+0  00000-0 0  9991
2 41418 100.0000 240.0000 0000000   0.0000  60.0000 14.24551582    11
CTC1_L_00130021-04
1 41419U 22824EL  26037.47802083  .00000000  00000+0  00000-0 0  9996
2 41419 100.0000 240.0000 0000000   0.0000 150.0000 14.24551582    12
CTC1_L_00130022-01
1 41420U 22586QB  26037.47802083  .00000000  00000+0  00000-0 0  9993
2 41420 100.0000 252.0000 0000000   0.0000 252.0000 14.24551582    10
CTC1_L_00130022-02
1 41421U 26144TA  26037.47802083  .00000000  00000+0  00000-0 0  9998
2 41421 100.0000 252.0000 0000000   0.0000 342.0000 14.24551582    11
CTC1_L_00130022-03
1 41422U 26280MM  26037.47802083  .00000000  00000+0  00000-0 0  9990
2 41422 100.0000 252.0000 0000000   0.0000  72.0000 14.24551582    12
CTC1_L_00130022-04
1 41423U 26338UU  26037.47802083  .00000000  00000+0  00000-0 0  9995
2 41423 100.0000 252.0000 0000000   0.0000 162.0000 14.24551582    13
CTC1_L_00130023-01
1 41424U 26077JV  26037.47802083  .00000000  00000+0  00000-0 0  9996
2 41424 100.0000 264.0000 0000000   0.0000 264.0000 14.24551582    10
CTC1_L_00130023-02
1 41425U 22396SA  26037.47802083  .00000000  00000+0  00000-0 0  9997
2 41425 100.0000 264.0000 0000000   0.0000 354.0000 14.24551582    11
CTC1_L_00130023-03
1 41426U 23916SF  26037.47802083  .00000000  00000+0  00000-0 0  9997
2 41426 100.0000 264.0000 0000000   0.0000  84.0000 14.24551582    12
CTC1_L_00130023-04
1 41427U 22322QO  26037.47802083  .00000000  00000+0  00000-0 0  9998
2 41427 100.0000 264.0000 0000000   0.0000 174.0000 14.24551582    13
CTC1_L_00130024-01
1 41428U 25404XM  26037.47802083  .00000000  00000+0  00000-0 0  9993
2 41428 100.0000 276.0000 0000000   0.0000 276.0000 14.24551582    10
CTC1_L_00130024-02
1 41429U 24706GN  26037.47802083  .00000000  00000+0  00000-0 0  9998
2 41429 100.0000 276.0000 0000000   0.0000   6.0000 14.24551582    12
CTC1_L_00130024-03
1 41430U 22574LC  26037.47802083  .00000000  00000+0  00000-0 0  9991
2 41430 100.0000 276.0000 0000000   0.0000  96.0000 14.24551582    13
CTC1_L_00130024-04
1 41431U 22763IT  26037.47802083  .00000000  00000+0  00000-0 0  9992
2 41431 100.0000 276.0000 0000000   0.0000 186.0000 14.24551582    14
CTC1_L_00130025-01
1 41432U 26177BA  26037.47802083  .00000000  00000+0  00000-0 0  9996
2 41432 100.0000 288.0000 0000000   0.0000 288.0000 14.24551582    11
CTC1_L_00130025-02
1 41433U 22543ZP  26037.47802083  .00000000  00000+0  00000-0 0  9990
2 41433 100.0000 288.0000 0000000   0.0000  18.0000 14.24551582    13
CTC1_L_00130025-03
1 41434U 24242VL  26037.47802083  .00000000  00000+0  00000-0 0  9999
2 41434 100.0000 288.0000 0000000   0.0000 108.0000 14.24551582    14
CTC1_L_00130025-04
1 41435U 24832ZA  26037.47802083  .00000000  00000+0  00000-0 0  9995
2 41435 100.0000 288.0000 0000000   0.0000 198.0000 14.24551582    14
CTC1_L_00130026-01
1 41436U 23025OK  26037.47802083  .00000000  00000+0  00000-0 0  9999
2 41436 100.0000 300.0000 0000000   0.0000 300.0000 14.24551582    15
CTC1_L_00130026-02
1 41437U 26841HC  26037.47802083  .00000000  00000+0  00000-0 0  9999
2 41437 100.0000 300.0000 0000000   0.0000  30.0000 14.24551582    16
CTC1_L_00130026-03
1 41438U 24254TZ  26037.47802083  .00000000  00000+0  00000-0 0  9996
2 41438 100.0000 300.0000 0000000   0.0000 120.0000 14.24551582    17
CTC1_L_00130026-04
1 41439U 22915MN  26037.47802083  .00000000  00000+0  00000-0 0  9999
2 41439 100.0000 300.0000 0000000   0.0000 210.0000 14.24551582    18
CTC1_L_00130027-01
1 41440U 26830GH  26037.47802083  .00000000  00000+0  00000-0 0  9991
2 41440 100.0000 312.0000 0000000   0.0000 312.0000 14.24551582    16
CTC1_L_00130027-02
1 41441U 24569FG  26037.47802083  .00000000  00000+0  00000-0 0  9999
2 41441 100.0000 312.0000 0000000   0.0000  42.0000 14.24551582    17
CTC1_L_00130027-03
1 41442U 23505IY  26037.47802083  .00000000  00000+0  00000-0 0  9999
2 41442 100.0000 312.0000 0000000   0.0000 132.0000 14.24551582    18
CTC1_L_00130027-04
1 41443U 23517VZ  26037.47802083  .00000000  00000+0  00000-0 0  9993
2 41443 100.0000 312.0000 0000000   0.0000 222.0000 14.24551582    19
CTC1_L_00130028-01
1 41444U 22634XC  26037.47802083  .00000000  00000+0  00000-0 0  9993
2 41444 100.0000 324.0000 0000000   0.0000 324.0000 14.24551582    16
CTC1_L_00130028-02
1 41445U 26729NG  26037.47802083  .00000000  00000+0  00000-0 0  9993
2 41445 100.0000 324.0000 0000000   0.0000  54.0000 14.24551582    17
CTC1_L_00130028-03
1 41446U 24722GF  26037.47802083  .00000000  00000+0  00000-0 0  9995
2 41446 100.0000 324.0000 0000000   0.0000 144.0000 14.24551582    18
CTC1_L_00130028-04
1 41447U 24661WX  26037.47802083  .00000000  00000+0  00000-0 0  9998
2 41447 100.0000 324.0000 0000000   0.0000 234.0000 14.24551582    19
CTC1_L_00130029-01
1 41448U 24905RZ  26037.47802083  .00000000  00000+0  00000-0 0  9990
2 41448 100.0000 336.0000 0000000   0.0000 336.0000 14.24551582    16
CTC1_L_00130029-02
1 41449U 26523SF  26037.47802083  .00000000  00000+0  00000-0 0  9999
2 41449 100.0000 336.0000 0000000   0.0000  66.0000 14.24551582    17
CTC1_L_00130029-03
1 41450U 25844XX  26037.47802083  .00000000  00000+0  00000-0 0  9996
2 41450 100.0000 336.0000 0000000   0.0000 156.0000 14.24551582    19
CTC1_L_00130029-04
1 41451U 25192SB  26037.47802083  .00000000  00000+0  00000-0 0  9993
2 41451 100.0000 336.0000 0000000   0.0000 246.0000 14.24551582    10
CTC1_L_00130030-01
1 41452U 22939KM  26037.47802083  .00000000  00000+0  00000-0 0  9990
2 41452 100.0000 348.0000 0000000   0.0000 348.0000 14.24551582    17
CTC1_L_00130030-02
1 41453U 26604TW  26037.47802083  .00000000  00000+0  00000-0 0  9994
2 41453 100.0000 348.0000 0000000   0.0000  78.0000 14.24551582    18
CTC1_L_00130030-03
1 41454U 26719KO  26037.47802083  .00000000  00000+0  00000-0 0  9992
2 41454 100.0000 348.0000 0000000   0.0000 168.0000 14.24551582    19
CTC1_L_00130030-04
1 41455U 23106MF  26037.47802083  .00000000  00000+0  00000-0 0  9990
2 41455 100.0000 348.0000 0000000   0.0000 258.0000 14.24551582    10
